#aV2022  3  5  0  0  0.00000000     288 DD+AD WGS84 FIT  NGA
## 2199 518400.00000000   300.00000000 59643 0.0000000000000
+   32     1  2  3  4  5  6  7  8  9 10 11 12 13 14 15 16 17
+         18 19 20 21 22 23 24 25 26 27 28 29 30 31 32  0  0
+          0  0  0  0  0  0  0  0  0  0  0  0  0  0  0  0  0
+          0  0  0  0  0  0  0  0  0  0  0  0  0  0  0  0  0
+          0  0  0  0  0  0  0  0  0  0  0  0  0  0  0  0  0
++         2  2  2  2  2  2  2  2  2  2  2  2  2  2  2  2  2
++         2  2  2  2  2  2  2  2  2  2  2  2  2  2  2  0  0
++         0  0  0  0  0  0  0  0  0  0  0  0  0  0  0  0  0
++         0  0  0  0  0  0  0  0  0  0  0  0  0  0  0  0  0
++         0  0  0  0  0  0  0  0  0  0  0  0  0  0  0  0  0
%c cc cc ccc ccc cccc cccc cccc cccc ccccc ccccc ccccc ccccc
%c cc cc ccc ccc cccc cccc cccc cccc ccccc ccccc ccccc ccccc
%f  0.0000000  0.000000000  0.00000000000  0.000000000000000
%f  0.0000000  0.000000000  0.00000000000  0.000000000000000
%i    0    0    0    0      0      0      0      0         0
%i    0    0    0    0      0      0      0      0         0
/*      NGA, ST. LOUIS,MO.                                  
/*   EPHEMERIS COMPUTED FROM 2 DAYS OF DATA                 
/*   EPOCHA v7 SMOOTHER                                     
/*   G2139 IERS2010 SATIGS SATAPC                           
*  2022  3  5  5 30  0.00000000
P  1  -7649.985148  18589.271257 -17454.621755    416.567518                    
V  1 -18996.661717  10556.760482  20230.967419     -0.092575                    
P  2  21358.318952 -15840.383798   -808.716957   -651.836968                    
V  2    149.696224   3156.957099 -31752.128301     -0.005252                    
P  3   2820.550530  16962.068675 -20375.251610   -149.160681                    
V  3 -23238.375055 -10722.547214 -12096.994164     -0.172326                    
P  4   -915.902121  26406.023953  -2210.025604   -185.767126                    
V  4  -2920.792705  -2751.976849 -31663.240052      0.025188                    
P  5  13916.585721  -9426.399499  20439.074053    -73.558686                    
V  5  23572.815103  11663.240331 -10439.774830     -0.013471                    
P  6  21799.083080  -2393.235534 -14971.158051    220.940419                    
V  6 -15168.659927  11615.722130 -23758.666286      0.124663                    
P  7   9231.777415  12610.828560  21868.691070    314.255114                    
V  7 -22621.571498  14532.618794    697.936454      0.022432                    
P  8  -6823.046577  22306.715968  12335.447839    -58.601908                    
V  8  -3715.726356 -15591.488250  26422.933736     -0.015150                    
P  9   7761.735894  23952.672614   8332.836070   -351.377623                    
V  9  -1999.123243  10878.709205 -29200.601877      0.018901                    
P 10 -24024.854239 -11684.874805   -399.795947   -337.617361                    
V 10    381.146396  -2279.087970  31809.157616     -0.110861                    
P 11  23448.663903 -12365.486464  -1556.941812    -70.745067                    
V 11   -308.768751   3397.430517 -31710.577861      0.105262                    
P 12   1625.949930 -16081.179131 -21365.497749   -180.123853                    
V 12  23010.823164  13068.179361  -8059.576938     -0.057302                    
P 13  12836.272334 -15717.798787  16895.899599    271.630343                    
V 13     92.768539  21862.642229  20244.845713      0.063011                    
P 14  23257.399809  12910.062540     47.558235    -90.636992                    
V 14  -1512.614948   2593.762085  31536.792413     -0.039901                    
P 15   4111.821504 -23394.330276  11147.221601    -79.207528                    
V 15   6221.401899  14047.968196  26553.137976      0.029092                    
P 16 -17964.178920   4188.817713  19009.356274   -476.934486                    
V 16 -20279.365364 -13847.137923 -15435.204839     -0.045502                    
P 17  12915.772656  12158.704108 -19321.966270    583.105932                    
V 17  -1249.356062  25432.815545  14887.651258      0.049843                    
P 18  -8514.655196 -12353.392418  21913.917727    226.984368                    
V 18  23518.073267 -14825.253677    680.887287     -0.085049                    
P 19  14667.309877   3933.353040 -22066.427608    126.879068                    
V 19  -1492.857861  27282.031611   3735.619533      0.049915                    
P 20  21369.960654  -4553.559712  14931.679641    516.438912                    
V 20  17393.515404   8334.978203 -22594.851412     -0.001658                    
P 21 -15879.374883  19144.084033  -7657.399051    158.963744                    
V 21 -10581.528489   3998.837032  30046.291710      0.005264                    
P 22 -15003.799268   -198.512017 -21512.746226    222.704148                    
V 22    590.341132 -28275.261095   -328.357504      0.057777                    
P 23 -18424.007257 -16316.196617  10103.405614     -4.093615                    
V 23  12548.598014   3393.021348  28239.520140     -0.033154                    
P 24  10133.767662 -20468.273672 -13501.544244    270.657924                    
V 24  15213.630601  -7944.117582  24399.207862     -0.028975                    
P 25 -12179.421582 -18213.650820 -15493.110175    293.975892                    
V 25  17881.479280   6842.821219 -22242.904325      0.052573                    
P 26 -24640.358402  -2943.143672   9800.881139    188.247258                    
V 26 -10281.891325  -7697.089034 -27611.040095      0.030951                    
P 27 -12528.286190  12508.177774  19467.759993    142.946691                    
V 27  -2822.550014 -25126.569626  14568.606757      0.137999                    
P 28  23633.711427   8513.892374  -7743.372937    387.361525                    
V 28   7552.181442   7897.571582  29977.372589     -0.082313                    
P 29  -4076.837611 -25322.941379   6739.507008   -487.578750                    
V 29   2240.840708  -8577.240631 -30712.960906     -0.046007                    
P 30  16917.311725   6383.973942  19601.829441   -516.942262                    
V 30 -20222.579681  14332.039460  12585.101783     -0.021466                    
P 31 -23256.013429   3828.110161 -12819.108243   -167.503672                    
V 31  12409.123303 -10169.325863 -25342.361416     -0.017397                    
P 32 -14935.944768  -7611.962060 -20508.613508    -78.776980                    
V 32   -857.710899 -26310.672474  10136.001960     -0.071666                    
EOF
